ALOS-2                  
1 39766U 14029A   26173.82032998  .00000910  00000+0  12870-3 0  9997
2 39766  97.9216 270.9034 0001609  91.1740 268.9656 14.79470158652416
KAZEOSAT 2              
1 40010U 14033A   26173.82093296 -.00000092  00000+0 -49060-5 0  9990
2 40010  97.5409  13.1349 0007434 308.5596  51.4953 14.85473094649793
HODOYOSHI-4             
1 40011U 14033B   26173.81669601  .00001404  00000+0  15749-3 0  9990
2 40011  97.5462 358.3676 0022066 288.7176  71.1647 14.88140857649645
DEIMOS-2                
1 40013U 14033D   26173.81014834  .00001650  00000+0  16096-3 0  9993
2 40013  97.5823  48.1008 0001432  61.3491 298.7874 14.93741091638561
HODOYOSHI-3             
1 40015U 14033F   26173.70882129  .00000742  00000+0  91547-4 0  9999
2 40015  97.6424 336.5271 0032191 338.8826  21.1059 14.85397442648446
SPOT 7                  
1 40053U 14034A   26173.79767091  .00000095  00000+0  28705-4 0  9998
2 40053  98.0623 236.1451 0001295  95.2920 264.8429 14.60961581637954
SKYSAT-B                
1 40072U 14037D   26173.63910184  .00000928  00000+0  10774-3 0  9999
2 40072  98.3840 132.9149 0004181 258.1735 101.9011 14.88038668646776
WORLDVIEW-3 (WV-3)      
1 40115U 14048A   26173.82729737  .00000566  00000+0  72603-4 0  9990
2 40115  97.8565 248.5823 0000531  19.8040 340.3195 14.85029349642749
GAOFEN-2                
1 40118U 14049A   26173.85202608 -.00000158  00000+0 -13562-4 0  9998
2 40118  98.0103 238.0539 0006476 205.8265 154.2625 14.80900875640072
YAOGAN-21               
1 40143U 14053A   26173.86595037  .00004880  00000+0  18971-3 0  9995
2 40143  97.1474 213.8582 0009852  77.3409 282.8931 15.26440407655821
YAOGAN-22               
1 40275U 14063A   26173.66136462 -.00000025  00000+0  57843-4 0  9993
2 40275 100.7732 325.0256 0006466 173.1175 187.0026 13.15531207560531
ASNARO                  
1 40298U 14070A   26173.82279159  .00005849  00000+0  27853-3 0  9990
2 40298  97.3444 249.7849 0006057 148.7731 211.3865 15.19500942644868
YAOGAN-24               
1 40310U 14072A   26173.84349934  .00000716  00000+0  11106-3 0  9990
2 40310  98.1498 311.2299 0012609 243.6589 116.3326 14.76229835624552
CBERS 4                 
1 40336U 14079A   26173.82247094  .00000086  00000+0  44419-4 0  9991
2 40336  98.3527 230.4774 0001670  58.2208 301.9140 14.35510363604760
YAOGAN-26               
1 40362U 14088A   26173.82410896  .00013996  00000+0  27353-3 0  9993
2 40362  97.0646 173.9004 0005536  54.7148 305.4620 15.47541955638576
SMAP                    
1 40376U 15003A   26173.82349793  .00000310  00000+0  69039-4 0  9997
2 40376  98.1276 180.8383 0001381  97.0648 263.0712 14.63370549608448
KOMPSAT-3A              
1 40536U 15014A   26173.84362294  .00022225  00000+0  31866-3 0  9995
2 40536  97.6887 165.6202 0057002 154.1482 206.2640 15.54226352622696
SENTINEL-2A             
1 40697U 15028A   26173.80910236  .00000142  00000+0  70878-4 0  9990
2 40697  98.5678 248.5813 0001121  91.4018 268.7293 14.30817007574532
GAOFEN-8                
1 40701U 15030A   26173.84815809  .00020808  00000+0  42533-3 0  9990
2 40701  97.6910   7.5589 0009257 166.2646 193.8856 15.46135688612325
CARBONITE 1 (CBNT-1)    
1 40718U 15032D   26173.78047466  .00001555  00000+0  19454-3 0  9993
2 40718  97.6515 351.6124 0012973 277.5023  82.4718 14.83600929590179
YAOGAN-27               
1 40878U 15040A   26173.88216560 -.00000409  00000+0 -96648-3 0  9992
2 40878 100.1157 160.0178 0007836 196.7340 163.3516 13.16068062518418
GAOFEN-9 01             
1 40894U 15047A   26173.86565378  .00000710  00000+0  93236-4 0  9993
2 40894  97.6278 209.3025 0028708 119.9767 240.4302 14.82892597581039
YAOGAN-28               
1 41026U 15064A   26173.82566876  .00005135  00000+0  19340-3 0  9999
2 41026  97.3080 311.9727 0011139 163.9530 196.2064 15.27479422591549
YAOGAN-29               
1 41038U 15069A   26173.84512344  .00000634  00000+0  84509-4 0  9999
2 41038  98.0028 202.4871 0002337  46.3204 313.8203 14.83089902571460
KENT RIDGE 1            
1 41167U 15077B   26173.27126914  .00003126  00000+0  97085-4 0  9994
2 41167  14.9786 228.1786 0008220 310.1596  49.8006 15.23157043581874
GAOFEN-4                
1 41194U 15083A   26173.88948447 -.00000331  00000+0  00000+0 0  9993
2 41194   0.3736  83.8740 0004117 117.1553 135.9517  1.00272229 38586
JASON-3                 
1 41240U 16002A   26173.82786911 -.00000033  00000+0  11614-3 0  9993
2 41240  66.0410 113.9762 0008447 272.5150  87.4902 12.87628243487972
SENTINEL-3A             
1 41335U 16011A   26173.82695170  .00000066  00000+0  45497-4 0  9996
2 41335  98.6247 241.1296 0001423  98.4434 261.6908 14.26734004538864
ZIYUAN 3-02 (ZY 3-02)   
1 41556U 16033A   26173.84655634  .00003577  00000+0  16309-3 0  9997
2 41556  97.3833 249.5126 0012366 269.2379  90.7440 15.21222922558843
CARTOSAT-2C             
1 41599U 16040A   26173.85670912  .00002381  00000+0  11616-3 0  9997
2 41599  97.4478 233.7568 0010309 113.4059 246.8261 15.19224878554571
