OBJECT_NAME,OBJECT_ID,EPOCH,MEAN_MOTION,ECCENTRICITY,INCLINATION,RA_OF_ASC_NODE,ARG_OF_PERICENTER,MEAN_ANOMALY,EPHEMERIS_TYPE,CLASSIFICATION_TYPE,NORAD_CAT_ID,ELEMENT_SET_NO,REV_AT_EPOCH,BSTAR,MEAN_MOTION_DOT,MEAN_MOTION_DDOT
ALOS-2,2014-029A,2026-06-22T19:41:16.510272,14.79470158,.00016094,97.9216,270.9034,91.1740,268.9656,0,U,39766,999,65241,.12869682E-3,.91E-5,0
KAZEOSAT 2,2014-033A,2026-06-22T19:42:08.607744,14.85473094,.00074344,97.5409,13.1349,308.5596,51.4953,0,U,40010,999,64979,-.4906004E-5,-.92E-6,0
HODOYOSHI-4,2014-033B,2026-06-22T19:36:02.535264,14.88140857,.0022066,97.5462,358.3676,288.7176,71.1647,0,U,40011,999,64964,.15748961E-3,.1404E-4,0
DEIMOS-2,2014-033D,2026-06-22T19:26:36.816576,14.93741091,.00014325,97.5823,48.1008,61.3491,298.7874,0,U,40013,999,63856,.16095667E-3,.165E-4,0
HODOYOSHI-3,2014-033F,2026-06-22T17:00:42.159456,14.85397442,.00321912,97.6424,336.5271,338.8826,21.1059,0,U,40015,999,64844,.9154653E-4,.742E-5,0
SPOT 7,2014-034A,2026-06-22T19:08:38.766624,14.60961581,.00012957,98.0623,236.1451,95.2920,264.8429,0,U,40053,999,63795,.28705432E-4,.95E-6,0
SKYSAT-B,2014-037D,2026-06-22T15:20:18.398976,14.88038668,.00041819,98.3840,132.9149,258.1735,101.9011,0,U,40072,999,64677,.10773513E-3,.928E-5,0
WORLDVIEW-3 (WV-3),2014-048A,2026-06-22T19:51:18.492768,14.85029349,.00005316,97.8565,248.5823,19.8040,340.3195,0,U,40115,999,64274,.726032E-4,.566E-5,0
GAOFEN-2,2014-049A,2026-06-22T20:26:55.053312,14.80900875,.00064763,98.0103,238.0539,205.8265,154.2625,0,U,40118,999,64007,-.1356231E-4,-.158E-5,0
YAOGAN-21,2014-053A,2026-06-22T20:46:58.111968,15.26440407,.0009852,97.1474,213.8582,77.3409,282.8931,0,U,40143,999,65582,.18971268E-3,.488E-4,0
YAOGAN-22,2014-063A,2026-06-22T15:52:21.903168,13.15531207,.00064662,100.7732,325.0256,173.1175,187.0026,0,U,40275,999,56053,.57843233E-4,-.25E-6,0
ASNARO,2014-070A,2026-06-22T19:44:49.193376,15.19500942,.00060578,97.3444,249.7849,148.7731,211.3865,0,U,40298,999,64486,.27853033E-3,.5849E-4,0
YAOGAN-24,2014-072A,2026-06-22T20:14:38.342976,14.76229835,.00126094,98.1498,311.2299,243.6589,116.3326,0,U,40310,999,62455,.11105532E-3,.716E-5,0
CBERS 4,2014-079A,2026-06-22T19:44:21.489216,14.35510363,.00016702,98.3527,230.4774,58.2208,301.9140,0,U,40336,999,60476,.44418751E-4,.86E-6,0
YAOGAN-26,2014-088A,2026-06-22T19:46:43.014144,15.47541955,.00055367,97.0646,173.9004,54.7148,305.4620,0,U,40362,999,63857,.27352886E-3,.13996E-3,0
SMAP,2015-003A,2026-06-22T19:45:50.221152,14.63370549,.00013818,98.1276,180.8383,97.0648,263.0712,0,U,40376,999,60844,.69038963E-4,.31E-5,0
KOMPSAT-3A,2015-014A,2026-06-22T20:14:49.022016,15.54226352,.00570024,97.6887,165.6202,154.1482,206.2640,0,U,40536,999,62269,.31865886E-3,.22225E-3,0
SENTINEL-2A,2015-028A,2026-06-22T19:25:06.443904,14.30817007,.00011214,98.5678,248.5813,91.4018,268.7293,0,U,40697,999,57453,.70877755E-4,.142E-5,0
GAOFEN-8,2015-030A,2026-06-22T20:21:20.858976,15.46135688,.00092576,97.6910,7.5589,166.2646,193.8856,0,U,40701,999,61232,.42532818E-3,.20808E-3,0
CARBONITE 1 (CBNT-1),2015-032D,2026-06-22T18:43:53.010624,14.83600929,.0012973,97.6515,351.6124,277.5023,82.4718,0,U,40718,999,59017,.19454146E-3,.1555E-4,0
YAOGAN-27,2015-040A,2026-06-22T21:10:19.107840,13.16068062,.00078363,100.1157,160.0178,196.7340,163.3516,0,U,40878,999,51841,-.96648329E-3,-.409E-5,0
GAOFEN-9 01,2015-047A,2026-06-22T20:46:32.486592,14.82892597,.00287088,97.6278,209.3025,119.9767,240.4302,0,U,40894,999,58103,.93236244E-4,.71E-5,0
YAOGAN-28,2015-064A,2026-06-22T19:48:57.780864,15.27479422,.00111399,97.3080,311.9727,163.9530,196.2064,0,U,41026,999,59154,.19340241E-3,.5135E-4,0
YAOGAN-29,2015-069A,2026-06-22T20:16:58.665216,14.83089902,.00023377,98.0028,202.4871,46.3204,313.8203,0,U,41038,999,57146,.84508886E-4,.634E-5,0
KENT RIDGE 1,2015-077B,2026-06-22T06:30:37.653696,15.23157043,.00082205,14.9786,228.1786,310.1596,49.8006,0,U,41167,999,58187,.97084526E-4,.3126E-4,0
GAOFEN-4,2015-083A,2026-06-22T21:20:51.458208,1.00272229,.00041176,0.3736,83.8740,117.1553,135.9517,0,U,41194,999,3858,0,-.331E-5,0
JASON-3,2016-002A,2026-06-22T19:52:07.891104,12.87628243,.00084474,66.0410,113.9762,272.5150,87.4902,0,U,41240,999,48797,.11614203E-3,-.33E-6,0
SENTINEL-3A,2016-011A,2026-06-22T19:50:48.626880,14.26734004,.00014234,98.6247,241.1296,98.4434,261.6908,0,U,41335,999,53886,.45496628E-4,.66E-6,0
ZIYUAN 3-02 (ZY 3-02),2016-033A,2026-06-22T20:19:02.467776,15.21222922,.00123665,97.3833,249.5126,269.2379,90.7440,0,U,41556,999,55884,.16308856E-3,.3577E-4,0
CARTOSAT-2C,2016-040A,2026-06-22T20:33:39.667968,15.19224878,.00103096,97.4478,233.7568,113.4059,246.8261,0,U,41599,999,55457,.11615577E-3,.2381E-4,0
